{
  "type": "FeatureCollection",
  "generator": "overpass-ide",
  "copyright": "The data included in this document is from www.openstreetmap.org. The data is made available under ODbL.",
  "timestamp": "2022-12-14T10:45:54Z",
  "features": [
    {
      "type": "Feature",
      "properties": {
        "@id": "node/290026925",
        "addr:city": "Praha",
        "addr:conscriptionnumber": "52",
        "addr:country": "CZ",
        "addr:housenumber": "52/8",
        "addr:place": "Staré Město",
        "addr:postcode": "11000",
        "addr:street": "Valentinská",
        "addr:streetnumber": "8",
        "addr:suburb": "Praha 1",
        "amenity": "restaurant",
        "name": "U Parlamentu",
        "opening_hours": "Mo-Su 11:00-23:00",
        "phone": "+420 721 415 747",
        "ref:ruian:addr": "21715157",
        "source:addr": "cuzk:ruian",
        "source:loc": "survey",
        "website": "http://uparlamentu.cz/",
        "wheelchair": "limited"
      },
      "geometry": {
        "type": "Point",
        "coordinates": [
          14.4165887,
          50.0882606
        ]
      },
      "id": "node/290026925"
    },
    {
      "type": "Feature",
      "properties": {
        "@id": "node/290026926",
        "addr:city": "Praha 1",
        "addr:conscriptionnumber": "93",
        "addr:housenumber": "93/10",
        "addr:postcode": "11000",
        "addr:street": "Veleslavínova",
        "amenity": "restaurant",
        "check_date:opening_hours": "2022-02-11",
        "cuisine": "pizza",
        "email": "veleslavinova@pizzadonna.cz",
        "name": "Pizzeria Donna",
        "opening_hours": "Mo-Su 11:00-23:00",
        "phone": "+420 222 321 937",
        "website": "https://www.pizzadonna.cz/",
        "wheelchair": "no"
      },
      "geometry": {
        "type": "Point",
        "coordinates": [
          14.4164882,
          50.087785
        ]
      },
      "id": "node/290026926"
    },
    {
      "type": "Feature",
      "properties": {
        "@id": "node/296442967",
        "addr:conscriptionnumber": "241",
        "addr:housenumber": "241/12",
        "addr:postcode": "11000",
        "addr:street": "Zlatá",
        "addr:streetnumber": "12",
        "source:addr": "uir_adr",
        "uir_adr:ADRESA_KOD": "21717265"
      },
      "geometry": {
        "type": "Point",
        "coordinates": [
          14.418034,
          50.0850944
        ]
      },
      "id": "node/296442967"
    },
    {
      "type": "Feature",
      "properties": {
        "@id": "node/296443467",
        "addr:conscriptionnumber": "77",
        "addr:housenumber": "77/2",
        "addr:place": "Staré Město",
        "addr:postcode": "11000",
        "addr:street": "Dvořákovo nábřeží",
        "addr:streetnumber": "2",
        "ref:ruian:addr": "21715289"
      },
      "geometry": {
        "type": "Point",
        "coordinates": [
          14.4154731,
          50.0907287
        ]
      },
      "id": "node/296443467"
    },
    {
      "type": "Feature",
      "properties": {
        "@id": "node/296443543",
        "addr:conscriptionnumber": "621",
        "addr:housenumber": "621/10",
        "addr:postcode": "11000",
        "addr:street": "Masná",
        "addr:streetnumber": "10",
        "source:addr": "uir_adr",
        "uir_adr:ADRESA_KOD": "21722463"
      },
      "geometry": {
        "type": "Point",
        "coordinates": [
          14.4239465,
          50.0890376
        ]
      },
      "id": "node/296443543"
    },
    {
      "type": "Feature",
      "properties": {
        "@id": "node/296443734",
        "addr:conscriptionnumber": "313",
        "addr:housenumber": "313/2",
        "addr:postcode": "11000",
        "addr:street": "Bartolomějská",
        "addr:streetnumber": "2",
        "source:addr": "uir_adr",
        "uir_adr:ADRESA_KOD": "21718245"
      },
      "geometry": {
        "type": "Point",
        "coordinates": [
          14.4161197,
          50.0822364
        ]
      },
      "id": "node/296443734"
    },
    {
      "type": "Feature",
      "properties": {
        "@id": "node/296443960",
        "addr:conscriptionnumber": "263",
        "addr:housenumber": "263/5",
        "addr:postcode": "11000",
        "addr:street": "Konviktská",
        "addr:streetnumber": "5",
        "source:addr": "uir_adr",
        "uir_adr:ADRESA_KOD": "21717567"
      },
      "geometry": {
        "type": "Point",
        "coordinates": [
          14.4158708,
          50.0833647
        ]
      },
      "id": "node/296443960"
    },
    {
      "type": "Feature",
      "properties": {
        "@id": "node/296444426",
        "addr:conscriptionnumber": "916",
        "addr:housenumber": "916/5",
        "addr:postcode": "11000",
        "addr:street": "Kozí",
        "addr:streetnumber": "5",
        "source:addr": "uir_adr",
        "uir_adr:ADRESA_KOD": "21725560"
      },
      "geometry": {
        "type": "Point",
        "coordinates": [
          14.4224732,
          50.0900869
        ]
      },
      "id": "node/296444426"
    },
    {
      "type": "Feature",
      "properties": {
        "@id": "node/296445067",
        "addr:conscriptionnumber": "784",
        "addr:housenumber": "784/7",
        "addr:postcode": "11000",
        "addr:street": "Haštalské náměstí",
        "addr:streetnumber": "7",
        "source:addr": "uir_adr",
        "uir_adr:ADRESA_KOD": "21724571"
      },
      "geometry": {
        "type": "Point",
        "coordinates": [
          14.4248352,
          50.0914124
        ]
      },
      "id": "node/296445067"
    },
    {
      "type": "Feature",
      "properties": {
        "@id": "node/296445113",
        "addr:conscriptionnumber": "49",
        "addr:housenumber": "49/8",
        "addr:postcode": "11000",
        "addr:street": "Kaprova",
        "addr:streetnumber": "8",
        "source:addr": "uir_adr",
        "uir_adr:ADRESA_KOD": "21715131"
      },
      "geometry": {
        "type": "Point",
        "coordinates": [
          14.4170779,
          50.0881823
        ]
      },
      "id": "node/296445113"
    },
    {
      "type": "Feature",
      "properties": {
        "@id": "node/296445248",
        "addr:conscriptionnumber": "52",
        "addr:housenumber": "52/6",
        "addr:postcode": "11000",
        "addr:street": "Kaprova",
        "addr:streetnumber": "6",
        "source:addr": "uir_adr",
        "uir_adr:ADRESA_KOD": "21715149"
      },
      "geometry": {
        "type": "Point",
        "coordinates": [
          14.4168075,
          50.0882512
        ]
      },
      "id": "node/296445248"
    },
    {
      "type": "Feature",
      "properties": {
        "@id": "node/296445301",
        "addr:conscriptionnumber": "609",
        "addr:housenumber": "609/2",
        "addr:postcode": "11000",
        "addr:street": "Dlouhá",
        "addr:streetnumber": "2",
        "source:addr": "uir_adr",
        "uir_adr:ADRESA_KOD": "21722315"
      },
      "geometry": {
        "type": "Point",
        "coordinates": [
          14.421798,
          50.0885297
        ]
      },
      "id": "node/296445301"
    },
    {
      "type": "Feature",
      "properties": {
        "@id": "node/296445326",
        "addr:conscriptionnumber": "186",
        "addr:housenumber": "186/5",
        "addr:postcode": "11000",
        "addr:street": "Anenská",
        "addr:streetnumber": "5",
        "source:addr": "uir_adr",
        "uir_adr:ADRESA_KOD": "21716439"
      },
      "geometry": {
        "type": "Point",
        "coordinates": [
          14.4150787,
          50.0854609
        ]
      },
      "id": "node/296445326"
    },
    {
      "type": "Feature",
      "properties": {
        "@id": "node/296445336",
        "addr:conscriptionnumber": "915",
        "addr:housenumber": "915/7",
        "addr:postcode": "11000",
        "addr:street": "Kozí",
        "addr:streetnumber": "7",
        "source:addr": "uir_adr",
        "uir_adr:ADRESA_KOD": "21725551"
      },
      "geometry": {
        "type": "Point",
        "coordinates": [
          14.4224902,
          50.0903064
        ]
      },
      "id": "node/296445336"
    },
    {
      "type": "Feature",
      "properties": {
        "@id": "node/296445403",
        "addr:conscriptionnumber": "345",
        "addr:housenumber": "345/7",
        "addr:postcode": "11000",
        "addr:street": "Na Perštýně",
        "addr:streetnumber": "7",
        "source:addr": "uir_adr",
        "uir_adr:ADRESA_KOD": "21718695"
      },
      "geometry": {
        "type": "Point",
        "coordinates": [
          14.4187204,
          50.0829745
        ]
      },
      "id": "node/296445403"
    },
    {
      "type": "Feature",
      "properties": {
        "@id": "node/296445433",
        "addr:conscriptionnumber": "230",
        "addr:housenumber": "230/14",
        "addr:postcode": "11000",
        "addr:street": "Husova",
        "addr:streetnumber": "14",
        "source:addr": "uir_adr",
        "uir_adr:ADRESA_KOD": "21717117"
      },
      "geometry": {
        "type": "Point",
        "coordinates": [
          14.4181874,
          50.085898
        ]
      },
      "id": "node/296445433"
    },
    {
      "type": "Feature",
      "properties": {
        "@id": "node/296445898",
        "addr:conscriptionnumber": "330",
        "addr:housenumber": "330/16",
        "addr:postcode": "11000",
        "addr:street": "Smetanovo nábřeží",
        "addr:streetnumber": "16",
        "source:addr": "uir_adr",
        "uir_adr:ADRESA_KOD": "21718547"
      },
      "geometry": {
        "type": "Point",
        "coordinates": [
          14.4135305,
          50.0841852
        ]
      },
      "id": "node/296445898"
    },
    {
      "type": "Feature",
      "properties": {
        "@id": "node/296445964",
        "addr:conscriptionnumber": "461",
        "addr:housenumber": "461/28",
        "addr:place": "Staré Město",
        "addr:postcode": "11000",
        "addr:street": "Staroměstské náměstí",
        "addr:streetnumber": "28",
        "ref:ruian:addr": "21720193"
      },
      "geometry": {
        "type": "Point",
        "coordinates": [
          14.4203527,
          50.0865026
        ]
      },
      "id": "node/296445964"
    },
    {
      "type": "Feature",
      "properties": {
        "@id": "node/296446008",
        "addr:conscriptionnumber": "600",
        "addr:housenumber": "600/7",
        "addr:place": "Staré Město",
        "addr:postcode": "11000",
        "addr:street": "Celetná",
        "addr:streetnumber": "7",
        "ref:ruian:addr": "21722161"
      },
      "geometry": {
        "type": "Point",
        "coordinates": [
          14.4232259,
          50.0872804
        ]
      },
      "id": "node/296446008"
    },
    {
      "type": "Feature",
      "properties": {
        "@id": "node/296446035",
        "addr:conscriptionnumber": "733",
        "addr:housenumber": "733/29",
        "addr:postcode": "11000",
        "addr:street": "Dlouhá",
        "addr:streetnumber": "29",
        "source:addr": "uir_adr",
        "uir_adr:ADRESA_KOD": "21723893"
      },
      "geometry": {
        "type": "Point",
        "coordinates": [
          14.4252668,
          50.0905158
        ]
      },
      "id": "node/296446035"
    },
    {
      "type": "Feature",
      "properties": {
        "@id": "node/296446255",
        "addr:conscriptionnumber": "485",
        "addr:housenumber": "485/4",
        "addr:postcode": "11000",
        "addr:street": "Železná",
        "addr:streetnumber": "4",
        "source:addr": "uir_adr",
        "uir_adr:ADRESA_KOD": "21720509"
      },
      "geometry": {
        "type": "Point",
        "coordinates": [
          14.4214974,
          50.0867696
        ]
      },
      "id": "node/296446255"
    },
    {
      "type": "Feature",
      "properties": {
        "@id": "node/296446576",
        "addr:city": "Praha 1",
        "addr:conscriptionnumber": "158",
        "addr:housenumber": "158/20",
        "addr:postcode": "11000",
        "addr:street": "Husova",
        "addr:streetnumber": "20",
        "name:ru": "Дворец Клам-Галласа",
        "source:addr": "uir_adr",
        "uir_adr:ADRESA_KOD": "21716129"
      },
      "geometry": {
        "type": "Point",
        "coordinates": [
          14.4177911,
          50.0864233
        ]
      },
      "id": "node/296446576"
    },
    {
      "type": "Feature",
      "properties": {
        "@id": "node/296446597",
        "addr:conscriptionnumber": "521",
        "addr:housenumber": "521/7",
        "addr:place": "Staré Město",
        "addr:postcode": "11000",
        "addr:street": "V kotcích",
        "addr:streetnumber": "7",
        "ref:ruian:addr": "21721025"
      },
      "geometry": {
        "type": "Point",
        "coordinates": [
          14.4209335,
          50.0844598
        ]
      },
      "id": "node/296446597"
    },
    {
      "type": "Feature",
      "properties": {
        "@id": "node/296447292",
        "addr:conscriptionnumber": "359",
        "addr:housenumber": "359/3",
        "addr:place": "Staré Město",
        "addr:postcode": "11000",
        "addr:street": "Martinská",
        "addr:streetnumber": "3",
        "ref:ruian:addr": "21718911"
      },
      "geometry": {
        "type": "Point",
        "coordinates": [
          14.4197491,
          50.0831989
        ]
      },
      "id": "node/296447292"
    },
    {
      "type": "Feature",
      "properties": {
        "@id": "node/296447348",
        "addr:conscriptionnumber": "725",
        "addr:housenumber": "725/2",
        "addr:postcode": "11000",
        "addr:street": "Hradební",
        "addr:streetnumber": "2",
        "source:addr": "uir_adr",
        "uir_adr:ADRESA_KOD": "21723745"
      },
      "geometry": {
        "type": "Point",
        "coordinates": [
          14.4273657,
          50.09088
        ]
      },
      "id": "node/296447348"
    },
    {
      "type": "Feature",
      "properties": {
        "@id": "node/296447441",
        "addr:conscriptionnumber": "715",
        "addr:housenumber": "715/38",
        "addr:postcode": "11000",
        "addr:street": "Dlouhá",
        "addr:streetnumber": "38",
        "source:addr": "uir_adr",
        "uir_adr:ADRESA_KOD": "21723591"
      },
      "geometry": {
        "type": "Point",
        "coordinates": [
          14.426107,
          50.0905448
        ]
      },
      "id": "node/296447441"
    },
    {
      "type": "Feature",
      "properties": {
        "@id": "node/296447524",
        "addr:conscriptionnumber": "768",
        "addr:housenumber": "768/34",
        "addr:postcode": "11000",
        "addr:street": "Haštalská",
        "addr:streetnumber": "34",
        "source:addr": "uir_adr",
        "uir_adr:ADRESA_KOD": "21724423"
      },
      "geometry": {
        "type": "Point",
        "coordinates": [
          14.4262822,
          50.0921667
        ]
      },
      "id": "node/296447524"
    },
    {
      "type": "Feature",
      "properties": {
        "@id": "node/296447534",
        "addr:conscriptionnumber": "394",
        "addr:housenumber": "394/13",
        "addr:postcode": "11000",
        "addr:street": "Na příkopě",
        "addr:streetnumber": "13",
        "source:addr": "uir_adr",
        "uir_adr:ADRESA_KOD": "21719373"
      },
      "geometry": {
        "type": "Point",
        "coordinates": [
          14.42446,
          50.0850507
        ]
      },
      "id": "node/296447534"
    },
    {
      "type": "Feature",
      "properties": {
        "@id": "node/296447652",
        "addr:conscriptionnumber": "759",
        "addr:housenumber": "759/5",
        "addr:postcode": "11000",
        "addr:street": "Hradební",
        "addr:streetnumber": "5",
        "source:addr": "uir_adr",
        "uir_adr:ADRESA_KOD": "21724288"
      },
      "geometry": {
        "type": "Point",
        "coordinates": [
          14.4267526,
          50.0916819
        ]
      },
      "id": "node/296447652"
    },
    {
      "type": "Feature",
      "properties": {
        "@id": "node/296448079",
        "addr:conscriptionnumber": "940",
        "addr:housenumber": "940/7",
        "addr:postcode": "11000",
        "addr:street": "Hradební",
        "addr:streetnumber": "7",
        "source:addr": "uir_adr",
        "uir_adr:ADRESA_KOD": "21725853"
      },
      "geometry": {
        "type": "Point",
        "coordinates": [
          14.4266822,
          50.0920115
        ]
      },
      "id": "node/296448079"
    },
    {
      "type": "Feature",
      "properties": {
        "@id": "node/296448330",
        "addr:conscriptionnumber": "927",
        "addr:housenumber": "927/3",
        "addr:postcode": "11000",
        "addr:street": "Dušní",
        "addr:streetnumber": "3",
        "source:addr": "uir_adr",
        "uir_adr:ADRESA_KOD": "21725705"
      },
      "geometry": {
        "type": "Point",
        "coordinates": [
          14.4213963,
          50.088957
        ]
      },
      "id": "node/296448330"
    },
    {
      "type": "Feature",
      "properties": {
        "@id": "node/296449069",
        "addr:conscriptionnumber": "386",
        "addr:housenumber": "386/7",
        "addr:place": "Staré Město",
        "addr:postcode": "11000",
        "addr:street": "Na můstku",
        "addr:streetnumber": "7",
        "ref:ruian:addr": "21719225",
        "wikidata": "Q33519343"
      },
      "geometry": {
        "type": "Point",
        "coordinates": [
          14.4229459,
          50.0845472
        ]
      },
      "id": "node/296449069"
    },
    {
      "type": "Feature",
      "properties": {
        "@id": "node/296449214",
        "addr:conscriptionnumber": "321",
        "addr:housenumber": "321/23",
        "addr:postcode": "11000",
        "addr:street": "Karoliny Světlé",
        "addr:streetnumber": "23",
        "source:addr": "uir_adr",
        "uir_adr:ADRESA_KOD": "21718393"
      },
      "geometry": {
        "type": "Point",
        "coordinates": [
          14.4143176,
          50.0832224
        ]
      },
      "id": "node/296449214"
    },
    {
      "type": "Feature",
      "properties": {
        "@id": "node/296449305",
        "addr:conscriptionnumber": "702",
        "addr:housenumber": "702/9",
        "addr:postcode": "11000",
        "addr:street": "Masná",
        "addr:streetnumber": "9",
        "source:addr": "uir_adr",
        "uir_adr:ADRESA_KOD": "21723443"
      },
      "geometry": {
        "type": "Point",
        "coordinates": [
          14.4240221,
          50.0893438
        ]
      },
      "id": "node/296449305"
    },
    {
      "type": "Feature",
      "properties": {
        "@id": "node/296449426",
        "addr:conscriptionnumber": "219",
        "addr:housenumber": "219/6",
        "addr:place": "Staré Město",
        "addr:postcode": "11000",
        "addr:street": "Zlatá",
        "addr:streetnumber": "6",
        "ref:ruian:addr": "21716960"
      },
      "geometry": {
        "type": "Point",
        "coordinates": [
          14.4162917,
          50.0848892
        ]
      },
      "id": "node/296449426"
    },
    {
      "type": "Feature",
      "properties": {
        "@id": "node/296449485",
        "addr:conscriptionnumber": "539",
        "addr:housenumber": "539/1",
        "addr:postcode": "11000",
        "addr:street": "Havelská ulička",
        "addr:streetnumber": "1",
        "source:addr": "uir_adr",
        "uir_adr:ADRESA_KOD": "21721327"
      },
      "geometry": {
        "type": "Point",
        "coordinates": [
          14.4224012,
          50.0853794
        ]
      },
      "id": "node/296449485"
    },
    {
      "type": "Feature",
      "properties": {
        "@id": "node/296449537",
        "addr:conscriptionnumber": "499",
        "addr:housenumber": "499/27",
        "addr:postcode": "11000",
        "addr:street": "Havelská",
        "addr:streetnumber": "27",
        "source:addr": "uir_adr",
        "uir_adr:ADRESA_KOD": "21720657"
      },
      "geometry": {
        "type": "Point",
        "coordinates": [
          14.4219871,
          50.085733
        ]
      },
      "id": "node/296449537"
    },
    {
      "type": "Feature",
      "properties": {
        "@id": "node/296449792",
        "addr:conscriptionnumber": "431",
        "addr:housenumber": "431/5",
        "addr:postcode": "11000",
        "addr:street": "Michalská",
        "addr:streetnumber": "5",
        "source:addr": "uir_adr",
        "uir_adr:ADRESA_KOD": "21719829"
      },
      "geometry": {
        "type": "Point",
        "coordinates": [
          14.4198486,
          50.0847177
        ]
      },
      "id": "node/296449792"
    },
    {
      "type": "Feature",
      "properties": {
        "@id": "node/296450116",
        "addr:conscriptionnumber": "759",
        "addr:housenumber": "759/30",
        "addr:postcode": "11000",
        "addr:street": "Haštalská",
        "addr:streetnumber": "30",
        "source:addr": "uir_adr",
        "uir_adr:ADRESA_KOD": "21724270"
      },
      "geometry": {
        "type": "Point",
        "coordinates": [
          14.426438,
          50.0916359
        ]
      },
      "id": "node/296450116"
    },
    {
      "type": "Feature",
      "properties": {
        "@id": "node/296450475",
        "addr:conscriptionnumber": "2",
        "addr:housenumber": "2/12",
        "addr:postcode": "11000",
        "addr:street": "Platnéřská",
        "addr:streetnumber": "12",
        "source:addr": "uir_adr",
        "uir_adr:ADRESA_KOD": "21714754"
      },
      "geometry": {
        "type": "Point",
        "coordinates": [
          14.4183733,
          50.087328
        ]
      },
      "id": "node/296450475"
    },
    {
      "type": "Feature",
      "properties": {
        "@id": "node/296450507",
        "addr:conscriptionnumber": "16",
        "addr:housenumber": "16/21",
        "addr:place": "Staré Město",
        "addr:postcode": "11000",
        "addr:street": "Platnéřská",
        "addr:streetnumber": "21",
        "ref:ruian:addr": "21714916"
      },
      "geometry": {
        "type": "Point",
        "coordinates": [
          14.4187499,
          50.0876421
        ]
      },
      "id": "node/296450507"
    },
    {
      "type": "Feature",
      "properties": {
        "@id": "node/296450584",
        "addr:conscriptionnumber": "642",
        "addr:housenumber": "642/5",
        "addr:postcode": "11000",
        "addr:street": "Štupartská",
        "addr:streetnumber": "5",
        "source:addr": "uir_adr",
        "uir_adr:ADRESA_KOD": "21722765"
      },
      "geometry": {
        "type": "Point",
        "coordinates": [
          14.4239162,
          50.087728
        ]
      },
      "id": "node/296450584"
    },
    {
      "type": "Feature",
      "properties": {
        "@id": "node/296450701",
        "addr:conscriptionnumber": "948",
        "addr:housenumber": "948/2",
        "addr:place": "Staré Město",
        "addr:postcode": "11000",
        "addr:street": "Zlatá",
        "addr:streetnumber": "2",
        "ref:ruian:addr": "21725942"
      },
      "geometry": {
        "type": "Point",
        "coordinates": [
          14.4151976,
          50.0849522
        ]
      },
      "id": "node/296450701"
    },
    {
      "type": "Feature",
      "properties": {
        "@id": "node/296450831",
        "addr:conscriptionnumber": "145",
        "addr:housenumber": "145/25",
        "addr:postcode": "11000",
        "addr:street": "Karlova",
        "addr:streetnumber": "25",
        "source:addr": "uir_adr",
        "uir_adr:ADRESA_KOD": "21715971"
      },
      "geometry": {
        "type": "Point",
        "coordinates": [
          14.418925,
          50.0863455
        ]
      },
      "id": "node/296450831"
    },
    {
      "type": "Feature",
      "properties": {
        "@id": "node/296450993",
        "addr:conscriptionnumber": "806",
        "addr:housenumber": "806/5",
        "addr:postcode": "11000",
        "addr:street": "Anežská",
        "addr:streetnumber": "5",
        "source:addr": "uir_adr",
        "uir_adr:ADRESA_KOD": "21724873"
      },
      "geometry": {
        "type": "Point",
        "coordinates": [
          14.4239165,
          50.0919483
        ]
      },
      "id": "node/296450993"
    }
  ]
}